ONEWEB-0641             
1 55805U 23029K   23242.85077117  .00006918  00000+0  17245-1 0  9991
2 55805  87.9219 148.2649 0002239  84.7519 275.3869 13.19686326 24208
ONEWEB-0642             
1 55806U 23029L   23242.84604559  .00000121  00000+0  26923-3 0  9992
2 55806  87.9282 148.2183 0002950  93.6366 266.5104 13.19726737 24194
ONEWEB-0643             
1 55807U 23029M   23242.91667824  .00000014  00000+0  00000+0 0  9990
2 55807  87.8453 133.0419 0002408  86.8206  39.1085 13.35630401 25905
ONEWEB-0644             
1 55808U 23029N   23242.84136606 -.00006990  00000+0 -17495-1 0  9991
2 55808  87.9213 148.2553 0002581  85.6561 274.4867 13.19761617 24199
ONEWEB-0645             
1 55809U 23029P   23242.68574017 -.00003561  00000+0 -89284-2 0  9993
2 55809  87.9216 148.2473 0002196  95.4558 264.6825 13.19747179 24171
ONEWEB-0646             
1 55810U 23029Q   23242.71574406  .00003417  00000+0  85030-2 0  9994
2 55810  87.9194 148.2571 0002319  78.8404 281.2989 13.19700127 24166
ONEWEB-0648             
1 55811U 23029R   23242.91667824  .00000014  00000+0  00000+0 0  9995
2 55811  87.8615 132.9939 0003818  87.2979 214.1374 13.34498086 25910
ONEWEB-0649             
1 55812U 23029S   23242.67854750  .00011365  00000+0  28363-1 0  9990
2 55812  87.9211 148.2765 0001724  90.9063 269.2267 13.19626413 24191
